{
    "links": {
        "self": "http://www.neowsapp.com/rest/v1/neo/3617077?api_key=iIulBulltgU6a56xZRHN4H3l9WmuAYTsLGpBGhQ2"
    },
    "id": "3617077",
    "neo_reference_id": "3617077",
    "name": "(2012 VD26)",
    "designation": "2012 VD26",
    "nasa_jpl_url": "http://ssd.jpl.nasa.gov/sbdb.cgi?sstr=3617077",
    "absolute_magnitude_h": 26.7,
    "estimated_diameter": {
        "kilometers": {
            "estimated_diameter_min": 0.0121494041,
            "estimated_diameter_max": 0.0271668934
        },
        "meters": {
            "estimated_diameter_min": 12.14940408,
            "estimated_diameter_max": 27.1668934089
        },
        "miles": {
            "estimated_diameter_min": 0.0075492874,
            "estimated_diameter_max": 0.0168807197
        },
        "feet": {
            "estimated_diameter_min": 39.8602508817,
            "estimated_diameter_max": 89.1302305717
        }
    },
    "is_potentially_hazardous_asteroid": false,
    "close_approach_data": [
        {
            "close_approach_date": "2012-11-03",
            "close_approach_date_full": "2012-Nov-03 06:13",
            "epoch_date_close_approach": 1351923180000,
            "relative_velocity": {
                "kilometers_per_second": "6.842992723",
                "kilometers_per_hour": "24634.7738027149",
                "miles_per_hour": "15307.0904220258"
            },
            "miss_distance": {
                "astronomical": "0.0381381643",
                "lunar": "14.8357459127",
                "kilometers": "5705388.144990041",
                "miles": "3545163.8018669258"
            },
            "orbiting_body": "Earth"
        }
    ],
    "orbital_data": {
        "orbit_id": "5",
        "orbit_determination_date": "2017-04-06 08:48:07",
        "first_observation_date": "2012-11-06",
        "last_observation_date": "2012-11-13",
        "data_arc_in_days": 7,
        "observations_used": 25,
        "orbit_uncertainty": "8",
        "minimum_orbit_intersection": ".0379101",
        "jupiter_tisserand_invariant": "3.744",
        "epoch_osculation": "2456240.5",
        "eccentricity": ".4712950697315787",
        "semi_major_axis": "1.946888604963299",
        "inclination": "6.933515601132116",
        "ascending_node_longitude": "222.4912759417928",
        "orbital_period": "992.2248090629405",
        "perihelion_distance": "1.029329604127505",
        "perihelion_argument": "181.633512963405",
        "aphelion_distance": "2.864447605799093",
        "perihelion_time": "2456237.255493116733",
        "mean_anomaly": "1.177175240235329",
        "mean_motion": ".3628210025709646",
        "equinox": "J2000",
        "orbit_class": {
            "orbit_class_type": "AMO",
            "orbit_class_description": "Near-Earth asteroid orbits similar to that of 1221 Amor",
            "orbit_class_range": "1.017 AU < q (perihelion) < 1.3 AU"
        }
    },
    "is_sentry_object": false
}